STARLINK-4625           
1 53683U 22105AM  26038.20544393  .00000191  00000+0  19422-4 0  9996
2 53683  97.6015 280.3687 0002987  82.0679 278.0884 15.01266306188663
STARLINK-4624           
1 53684U 22105AN  26038.22186425  .00001370  00000+0  11118-3 0  9990
2 53684  97.6054 280.4497 0001774  80.9759 279.1666 15.01263334188642
STARLINK-4626           
1 53685U 22105AP  26038.26469876  .00000607  00000+0  51760-4 0  9999
2 53685  97.6010 280.4308 0002912  55.1211 305.0287 15.01262637188674
STARLINK-4467           
1 53686U 22105AQ  26038.23667289  .00004204  00000+0  33159-3 0  9993
2 53686  97.6015 280.4479 0000709 209.7692 150.3492 15.01268962188677
STARLINK-4569           
1 53687U 22105AR  26038.26475530 -.00000019  00000+0  28773-5 0  9992
2 53687  97.6020 281.1819 0002273  84.6674 275.4812 15.05650320188726
STARLINK-4571           
1 53688U 22105AS  26038.25890953  .00001812  00000+0  14558-3 0  9997
2 53688  97.6022 280.4172 0002072  29.4338 330.7003 15.01260351188672
STARLINK-4570           
1 53690U 22105AU  26038.21448425  .00011926  00000+0  93276-3 0  9990
2 53690  97.6037 280.3267 0003991  64.9339 295.2299 15.01203139188663
STARLINK-4560           
1 53691U 22105AV  26038.23985218  .00000322  00000+0  26502-4 0  9996
2 53691  97.6038 281.1992 0002409  78.6023 281.5475 15.05648648188727
STARLINK-4572           
1 53692U 22105AW  26038.25876322  .00011668  00000+0  55699-3 0  9997
2 53692  97.6229 284.9146 0004423  35.2579 324.8946 15.19211005188930
STARLINK-4566           
1 53693U 22105AX  26038.19553816  .00000011  00000+0  49647-5 0  9999
2 53693  97.6029 281.2479 0002092  82.0958 278.0507 15.05650005188721
STARLINK-4725           
1 53700U 22107A   26038.18302630 -.00000040  00000+0  15560-4 0  9994
2 53700  53.2197  20.6980 0001605 106.3842 253.7326 15.08842175190251
STARLINK-4711           
1 53701U 22107B   26038.31182826  .00000856  00000+0  71912-4 0  9990
2 53701  53.2195  20.0809 0001451  96.7306 263.3852 15.08832569190279
STARLINK-4724           
1 53702U 22107C   26038.13844554  .00001464  00000+0  11006-3 0  9997
2 53702  53.2196   6.1713 0001677  93.6996 266.4188 15.08837010190486
STARLINK-4731           
1 53703U 22107D   26038.26032772 -.00000022  00000+0  16690-4 0  9998
2 53703  53.2211  20.4673 0001628  79.2102 280.9074 15.08838740190266
STARLINK-4714           
1 53704U 22107E   26038.24198205  .00001823  00000+0  13261-3 0  9990
2 53704  53.2200  21.0635 0001281  83.5706 276.5432 15.08843785190098
STARLINK-4717           
1 53705U 22107F   26038.23829941  .00001476  00000+0  11082-3 0  9991
2 53705  53.2208  21.0381 0001385 101.7448 258.3700 15.08841796190250
