[{"OBJECT_NAME":"STARLINK-4625","OBJECT_ID":"2022-105AM","EPOCH":"2026-02-07T04:55:50.355552","MEAN_MOTION":15.01266306,"ECCENTRICITY":0.00029878,"INCLINATION":97.6015,"RA_OF_ASC_NODE":280.3687,"ARG_OF_PERICENTER":82.0679,"MEAN_ANOMALY":278.0884,"EPHEMERIS_TYPE":0,"CLASSIFICATION_TYPE":"U","NORAD_CAT_ID":53683,"ELEMENT_SET_NO":999,"REV_AT_EPOCH":18866,"BSTAR":1.9421666e-5,"MEAN_MOTION_DOT":1.91e-6,"MEAN_MOTION_DDOT":0},{"OBJECT_NAME":"STARLINK-4624","OBJECT_ID":"2022-105AN","EPOCH":"2026-02-07T05:19:29.071200","MEAN_MOTION":15.01263334,"ECCENTRICITY":0.00017748,"INCLINATION":97.6054,"RA_OF_ASC_NODE":280.4497,"ARG_OF_PERICENTER":80.9759,"MEAN_ANOMALY":279.1666,"EPHEMERIS_TYPE":0,"CLASSIFICATION_TYPE":"U","NORAD_CAT_ID":53684,"ELEMENT_SET_NO":999,"REV_AT_EPOCH":18864,"BSTAR":0.00011117738,"MEAN_MOTION_DOT":1.37e-5,"MEAN_MOTION_DDOT":0},{"OBJECT_NAME":"STARLINK-4626","OBJECT_ID":"2022-105AP","EPOCH":"2026-02-07T06:21:09.972864","MEAN_MOTION":15.01262637,"ECCENTRICITY":0.00029123,"INCLINATION":97.601,"RA_OF_ASC_NODE":280.4308,"ARG_OF_PERICENTER":55.1211,"MEAN_ANOMALY":305.0287,"EPHEMERIS_TYPE":0,"CLASSIFICATION_TYPE":"U","NORAD_CAT_ID":53685,"ELEMENT_SET_NO":999,"REV_AT_EPOCH":18867,"BSTAR":5.176038e-5,"MEAN_MOTION_DOT":6.07e-6,"MEAN_MOTION_DDOT":0},{"OBJECT_NAME":"STARLINK-4467","OBJECT_ID":"2022-105AQ","EPOCH":"2026-02-07T05:40:48.537696","MEAN_MOTION":15.01268962,"ECCENTRICITY":7.094e-5,"INCLINATION":97.6015,"RA_OF_ASC_NODE":280.4479,"ARG_OF_PERICENTER":209.7692,"MEAN_ANOMALY":150.3492,"EPHEMERIS_TYPE":0,"CLASSIFICATION_TYPE":"U","NORAD_CAT_ID":53686,"ELEMENT_SET_NO":999,"REV_AT_EPOCH":18867,"BSTAR":0.00033159056,"MEAN_MOTION_DOT":4.204e-5,"MEAN_MOTION_DDOT":0},{"OBJECT_NAME":"STARLINK-4569","OBJECT_ID":"2022-105AR","EPOCH":"2026-02-07T06:21:14.857920","MEAN_MOTION":15.0565032,"ECCENTRICITY":0.00022738,"INCLINATION":97.602,"RA_OF_ASC_NODE":281.1819,"ARG_OF_PERICENTER":84.6674,"MEAN_ANOMALY":275.4812,"EPHEMERIS_TYPE":0,"CLASSIFICATION_TYPE":"U","NORAD_CAT_ID":53687,"ELEMENT_SET_NO":999,"REV_AT_EPOCH":18872,"BSTAR":2.877332e-6,"MEAN_MOTION_DOT":-1.9e-7,"MEAN_MOTION_DDOT":0},{"OBJECT_NAME":"STARLINK-4571","OBJECT_ID":"2022-105AS","EPOCH":"2026-02-07T06:12:49.783392","MEAN_MOTION":15.01260351,"ECCENTRICITY":0.00020725,"INCLINATION":97.6022,"RA_OF_ASC_NODE":280.4172,"ARG_OF_PERICENTER":29.4338,"MEAN_ANOMALY":330.7003,"EPHEMERIS_TYPE":0,"CLASSIFICATION_TYPE":"U","NORAD_CAT_ID":53688,"ELEMENT_SET_NO":999,"REV_AT_EPOCH":18867,"BSTAR":0.00014558179,"MEAN_MOTION_DOT":1.812e-5,"MEAN_MOTION_DDOT":0},{"OBJECT_NAME":"STARLINK-4570","OBJECT_ID":"2022-105AU","EPOCH":"2026-02-07T05:08:51.439200","MEAN_MOTION":15.01203139,"ECCENTRICITY":0.00039919,"INCLINATION":97.6037,"RA_OF_ASC_NODE":280.3267,"ARG_OF_PERICENTER":64.9339,"MEAN_ANOMALY":295.2299,"EPHEMERIS_TYPE":0,"CLASSIFICATION_TYPE":"U","NORAD_CAT_ID":53690,"ELEMENT_SET_NO":999,"REV_AT_EPOCH":18866,"BSTAR":0.00093275944,"MEAN_MOTION_DOT":0.00011926,"MEAN_MOTION_DDOT":0},{"OBJECT_NAME":"STARLINK-4560","OBJECT_ID":"2022-105AV","EPOCH":"2026-02-07T05:45:23.228352","MEAN_MOTION":15.05648648,"ECCENTRICITY":0.00024098,"INCLINATION":97.6038,"RA_OF_ASC_NODE":281.1992,"ARG_OF_PERICENTER":78.6023,"MEAN_ANOMALY":281.5475,"EPHEMERIS_TYPE":0,"CLASSIFICATION_TYPE":"U","NORAD_CAT_ID":53691,"ELEMENT_SET_NO":999,"REV_AT_EPOCH":18872,"BSTAR":2.6501892e-5,"MEAN_MOTION_DOT":3.22e-6,"MEAN_MOTION_DDOT":0},{"OBJECT_NAME":"STARLINK-4572","OBJECT_ID":"2022-105AW","EPOCH":"2026-02-07T06:12:37.142208","MEAN_MOTION":15.19211005,"ECCENTRICITY":0.00044239,"INCLINATION":97.6229,"RA_OF_ASC_NODE":284.9146,"ARG_OF_PERICENTER":35.2579,"MEAN_ANOMALY":324.8946,"EPHEMERIS_TYPE":0,"CLASSIFICATION_TYPE":"U","NORAD_CAT_ID":53692,"ELEMENT_SET_NO":999,"REV_AT_EPOCH":18893,"BSTAR":0.00055699095,"MEAN_MOTION_DOT":0.00011668,"MEAN_MOTION_DDOT":0},{"OBJECT_NAME":"STARLINK-4566","OBJECT_ID":"2022-105AX","EPOCH":"2026-02-07T04:41:34.497024","MEAN_MOTION":15.05650005,"ECCENTRICITY":0.00020925,"INCLINATION":97.6029,"RA_OF_ASC_NODE":281.2479,"ARG_OF_PERICENTER":82.0958,"MEAN_ANOMALY":278.0507,"EPHEMERIS_TYPE":0,"CLASSIFICATION_TYPE":"U","NORAD_CAT_ID":53693,"ELEMENT_SET_NO":999,"REV_AT_EPOCH":18872,"BSTAR":4.964723e-6,"MEAN_MOTION_DOT":1.1e-7,"MEAN_MOTION_DDOT":0},{"OBJECT_NAME":"STARLINK-4725","OBJECT_ID":"2022-107A","EPOCH":"2026-02-07T04:23:33.472320","MEAN_MOTION":15.08842175,"ECCENTRICITY":0.00016051,"INCLINATION":53.2197,"RA_OF_ASC_NODE":20.698,"ARG_OF_PERICENTER":106.3842,"MEAN_ANOMALY":253.7326,"EPHEMERIS_TYPE":0,"CLASSIFICATION_TYPE":"U","NORAD_CAT_ID":53700,"ELEMENT_SET_NO":999,"REV_AT_EPOCH":19025,"BSTAR":1.5559605e-5,"MEAN_MOTION_DOT":-4.0e-7,"MEAN_MOTION_DDOT":0},{"OBJECT_NAME":"STARLINK-4711","OBJECT_ID":"2022-107B","EPOCH":"2026-02-07T07:29:01.961664","MEAN_MOTION":15.08832569,"ECCENTRICITY":0.00014515,"INCLINATION":53.2195,"RA_OF_ASC_NODE":20.0809,"ARG_OF_PERICENTER":96.7306,"MEAN_ANOMALY":263.3852,"EPHEMERIS_TYPE":0,"CLASSIFICATION_TYPE":"U","NORAD_CAT_ID":53701,"ELEMENT_SET_NO":999,"REV_AT_EPOCH":19027,"BSTAR":7.1911653e-5,"MEAN_MOTION_DOT":8.56e-6,"MEAN_MOTION_DDOT":0},{"OBJECT_NAME":"STARLINK-4724","OBJECT_ID":"2022-107C","EPOCH":"2026-02-07T03:19:21.694656","MEAN_MOTION":15.0883701,"ECCENTRICITY":0.00016776,"INCLINATION":53.2196,"RA_OF_ASC_NODE":6.1713,"ARG_OF_PERICENTER":93.6996,"MEAN_ANOMALY":266.4188,"EPHEMERIS_TYPE":0,"CLASSIFICATION_TYPE":"U","NORAD_CAT_ID":53702,"ELEMENT_SET_NO":999,"REV_AT_EPOCH":19048,"BSTAR":0.0001100616,"MEAN_MOTION_DOT":1.464e-5,"MEAN_MOTION_DDOT":0},{"OBJECT_NAME":"STARLINK-4731","OBJECT_ID":"2022-107D","EPOCH":"2026-02-07T06:14:52.315008","MEAN_MOTION":15.0883874,"ECCENTRICITY":0.00016282,"INCLINATION":53.2211,"RA_OF_ASC_NODE":20.4673,"ARG_OF_PERICENTER":79.2102,"MEAN_ANOMALY":280.9074,"EPHEMERIS_TYPE":0,"CLASSIFICATION_TYPE":"U","NORAD_CAT_ID":53703,"ELEMENT_SET_NO":999,"REV_AT_EPOCH":19026,"BSTAR":1.6690368e-5,"MEAN_MOTION_DOT":-2.2e-7,"MEAN_MOTION_DDOT":0},{"OBJECT_NAME":"STARLINK-4714","OBJECT_ID":"2022-107E","EPOCH":"2026-02-07T05:48:27.249120","MEAN_MOTION":15.08843785,"ECCENTRICITY":0.00012816,"INCLINATION":53.22,"RA_OF_ASC_NODE":21.0635,"ARG_OF_PERICENTER":83.5706,"MEAN_ANOMALY":276.5432,"EPHEMERIS_TYPE":0,"CLASSIFICATION_TYPE":"U","NORAD_CAT_ID":53704,"ELEMENT_SET_NO":999,"REV_AT_EPOCH":19009,"BSTAR":0.00013260525,"MEAN_MOTION_DOT":1.823e-5,"MEAN_MOTION_DDOT":0},{"OBJECT_NAME":"STARLINK-4717","OBJECT_ID":"2022-107F","EPOCH":"2026-02-07T05:43:09.069024","MEAN_MOTION":15.08841796,"ECCENTRICITY":0.00013858,"INCLINATION":53.2208,"RA_OF_ASC_NODE":21.0381,"ARG_OF_PERICENTER":101.7448,"MEAN_ANOMALY":258.37,"EPHEMERIS_TYPE":0,"CLASSIFICATION_TYPE":"U","NORAD_CAT_ID":53705,"ELEMENT_SET_NO":999,"REV_AT_EPOCH":19025,"BSTAR":0.00011081874,"MEAN_MOTION_DOT":1.476e-5,"MEAN_MOTION_DDOT":0}]
